OBJECT_NAME,OBJECT_ID,EPOCH,MEAN_MOTION,ECCENTRICITY,INCLINATION,RA_OF_ASC_NODE,ARG_OF_PERICENTER,MEAN_ANOMALY,EPHEMERIS_TYPE,CLASSIFICATION_TYPE,NORAD_CAT_ID,ELEMENT_SET_NO,REV_AT_EPOCH,BSTAR,MEAN_MOTION_DOT,MEAN_MOTION_DDOT
STARLINK-5970,2023-064C,2026-06-05T01:40:38.937504,14.98331004,.00030217,69.9994,284.1830,266.8166,93.2647,0,U,56450,999,16833,.31536333E-4,.283E-5,0
STARLINK-5985,2023-064D,2026-06-05T02:10:28.049952,14.98328245,.00030598,69.9993,284.2537,265.8394,94.2415,0,U,56451,999,16833,.7576775E-4,.811E-5,0
STARLINK-5986,2023-064E,2026-06-05T02:04:25.865472,14.98345237,.00026799,70.0002,284.2389,272.7069,87.3783,0,U,56452,999,16833,.18009425E-3,.2057E-4,0
STARLINK-5935,2023-064F,2026-06-05T01:58:26.917536,14.98328484,.00025512,69.9995,284.2247,269.8759,90.2108,0,U,56453,999,16833,-.16038128E-4,-.284E-5,0
STARLINK-5959,2023-064G,2026-06-05T01:28:23.360736,14.98330533,.00029233,70.0000,284.1520,265.4080,94.6745,0,U,56454,999,16833,.6461558E-5,-.16E-6,0
STARLINK-5987,2023-064H,2026-06-05T08:00:03.000384,14.98325746,.00032048,70.0010,283.4396,267.6156,141.6398,0,U,56455,999,578,.22921723E-2,.27361E-3,0
STARLINK-5995,2023-064J,2026-06-05T01:40:24.702240,14.98330210,.00031475,69.9994,284.1801,268.8441,91.2357,0,U,56456,999,16833,.24771447E-4,.203E-5,0
STARLINK-5994,2023-064K,2026-06-05T01:34:23.954592,14.98332072,.00030073,69.9991,284.1648,268.6787,91.4028,0,U,56457,999,16833,.39774852E-4,.382E-5,0
STARLINK-6050,2023-064L,2026-06-05T01:46:25.425696,14.98336313,.00034687,69.9989,284.1940,271.9574,88.1188,0,U,56458,999,16833,.54132685E-4,.553E-5,0
STARLINK-6048,2023-064M,2026-06-04T15:21:46.092384,14.98331735,.00029541,70.0002,285.0902,263.4586,96.6236,0,U,56459,999,16826,.43187983E-4,.422E-5,0
STARLINK-6047,2023-064N,2026-06-05T01:16:22.084896,14.98331262,.00031334,69.9997,284.1212,267.5170,92.5630,0,U,56460,999,16833,.12697035E-4,.58E-6,0
STARLINK-6037,2023-064P,2026-06-05T02:28:28.086240,14.98339260,.00034505,69.9995,283.8945,268.1526,91.9237,0,U,56461,999,16834,.12883586E-3,.1445E-4,0
STARLINK-6045,2023-064Q,2026-06-04T15:45:07.474464,14.98333081,.00032418,69.9998,244.9759,260.4205,99.6588,0,U,56462,999,16926,.23740821E-4,.19E-5,0
STARLINK-6051,2023-064R,2026-06-05T01:52:26.152608,14.98337592,.00032792,69.9985,284.2015,269.7576,90.3208,0,U,56463,999,16833,-.51478592E-4,-.707E-5,0
STARLINK-6043,2023-064S,2026-06-04T17:09:41.107104,14.98332568,.00030609,70.0000,284.9499,265.2555,94.8255,0,U,56464,999,16828,.63238727E-4,.662E-5,0
STARLINK-6054,2023-064T,2026-06-04T15:56:54.870144,14.98341144,.00032329,69.9998,244.9985,268.7312,91.3476,0,U,56465,999,16926,.2604956E-5,-.62E-6,0
STARLINK-6053,2023-064U,2026-06-04T16:57:39.673152,14.98332068,.00032215,69.9997,284.9203,261.0025,99.0770,0,U,56466,999,16827,.68673059E-4,.726E-5,0
STARLINK-6055,2023-064V,2026-06-04T17:27:23.732064,14.98331620,.0003182,69.9992,265.1242,265.2895,94.7900,0,U,56467,999,16877,.53169E-5,-.3E-6,0
STARLINK-5998,2023-064W,2026-06-05T02:22:26.996448,14.98332570,.0003179,69.9996,283.8793,273.0262,87.0533,0,U,56468,999,16834,.41997418E-4,.408E-5,0
STARLINK-5518,2023-064X,2026-06-05T00:09:57.424032,14.98346648,.00037483,69.9977,264.4967,254.1681,105.9065,0,U,56469,999,16881,-.41904401E-3,-.5092E-4,0
STARLINK-5523,2023-064Y,2026-06-04T17:33:25.175232,14.98324944,.0002753,69.9991,265.1388,265.9208,94.1636,0,U,56470,999,16877,-.11843E-3,-.1506E-4,0
STARLINK-5521,2023-064Z,2026-06-04T17:21:23.013792,14.98330202,.0003421,69.9990,265.1094,255.7416,104.3363,0,U,56471,999,16877,.16692E-4,.106E-5,0
STARLINK-5038,2023-064AA,2026-06-05T01:10:03.580320,14.98328786,.00032609,69.9990,264.2377,265.6872,94.3914,0,U,56472,999,16882,-.41857004E-4,-.592E-5,0
STARLINK-5524,2023-064AC,2026-06-04T17:39:25.126272,14.98331702,.0003056,69.9995,265.1524,269.6024,90.4785,0,U,56474,999,16877,-.37416E-5,-.138E-5,0
STARLINK-5541,2023-064AD,2026-06-05T07:28:33.797856,14.98331612,.00032317,69.9994,263.5461,268.1373,91.9416,0,U,56475,999,16886,.35794542E-4,.334E-5,0
STARLINK-5545,2023-064AE,2026-06-04T17:15:22.592736,14.98330301,.000294,69.9994,265.0933,261.4559,98.6267,0,U,56476,999,16877,.23919E-4,.192E-5,0
STARLINK-5534,2023-064AF,2026-06-05T00:40:12.548064,14.98360418,.00032696,69.9993,264.1643,260.8730,99.2059,0,U,56477,999,16882,-.49457927E-3,-.5994E-4,0
STARLINK-6041,2023-064AG,2026-06-05T00:58:00.820128,14.98330933,.00030185,69.9998,264.2069,272.6224,87.4590,0,U,56478,999,16882,.39436332E-4,.378E-5,0
STARLINK-6044,2023-064AH,2026-06-05T00:21:56.717856,14.98332383,.00027442,70.0002,264.1172,272.6045,87.4800,0,U,56479,999,16882,-.97445395E-4,-.1256E-4,0
STARLINK-6214,2023-064AJ,2026-06-04T05:09:07.492320,15.36484757,.00037193,69.9906,224.1833,287.5100,72.5672,0,U,56480,999,16975,.35244593E-3,.12468E-3,0
STARLINK-6222,2023-064AK,2026-06-05T00:33:58.144896,14.98329322,.00034082,69.9993,264.1469,269.9298,90.1470,0,U,56481,999,16882,.4982558E-4,.501E-5,0
STARLINK-6220,2023-064AL,2026-06-05T00:52:00.161472,14.98330800,.00032351,69.9992,264.1912,269.9687,90.1101,0,U,56482,999,16882,.62727098E-4,.656E-5,0
STARLINK-5868,2023-064AM,2026-06-05T00:45:59.603040,14.98341858,.00026682,70.0006,264.1733,275.1213,84.9641,0,U,56483,999,16882,.75714834E-4,.811E-5,0
STARLINK-6221,2023-064AN,2026-06-05T00:40:04.311552,14.98270109,.00038761,69.9998,264.1634,247.0926,112.9824,0,U,56484,999,16881,-.12191092E-2,-.14588E-3,0
STARLINK-6210,2023-064AP,2026-06-05T00:15:56.348640,14.98329757,.00028904,69.9997,264.1046,263.8903,96.1927,0,U,56485,999,16882,-.1208085E-5,-.107E-5,0
STARLINK-6196,2023-064AR,2026-06-04T15:50:54.117312,14.98332974,.00031151,69.9997,245.0222,265.8664,94.2139,0,U,56487,999,16926,.12484471E-4,.56E-6,0
STARLINK-6204,2023-064AS,2026-06-04T15:14:52.219104,14.98336040,.00029595,69.9998,245.3326,262.8753,97.2070,0,U,56488,999,16925,.26577519E-4,.224E-5,0
STARLINK-5923,2023-064AT,2026-06-04T16:32:58.629408,14.98333037,.0003128,69.9998,245.1201,270.7572,89.3228,0,U,56489,999,16926,.14669E-4,.82E-6,0
STARLINK-5873,2023-064AU,2026-06-05T07:28:14.646432,14.98327605,.00034714,69.9985,243.6750,269.4867,90.5894,0,U,56490,999,16935,-.727372E-5,-.18E-5,0
STARLINK-5842,2023-064AV,2026-06-03T14:48:47.118528,14.98347790,.00031488,69.9996,247.7953,276.7404,83.3396,0,U,56491,999,16910,.15350766E-3,.174E-4,0
STARLINK-5846,2023-064AW,2026-06-05T06:46:09.990048,14.98330306,.00032408,69.9987,243.5750,270.2297,89.8491,0,U,56492,999,16935,.1015133E-4,.28E-6,0
STARLINK-5841,2023-064AX,2026-06-05T06:27:48.516192,14.98331096,.00034632,69.9985,223.6469,269.1312,90.9450,0,U,56493,999,16984,.52699164E-4,.536E-5,0
STARLINK-5530,2023-064AY,2026-06-05T06:46:24.120768,14.98330203,.0003413,69.9989,243.5733,263.9909,96.0862,0,U,56494,999,16934,.1585575E-5,-.74E-6,0
STARLINK-5529,2023-064AZ,2026-06-05T06:34:08.285664,14.98333929,.00032662,69.9989,243.5443,261.7483,98.3306,0,U,56495,999,16935,-.20371601E-3,-.2523E-4,0
STARLINK-5526,2023-064BA,2026-06-05T06:28:07.887072,14.98329766,.00038344,69.9990,243.5299,267.8802,92.1918,0,U,56496,999,16935,.27345657E-4,.233E-5,0
STARLINK-5527,2023-064BB,2026-06-05T06:22:21.540576,14.98330357,.00037411,69.9992,243.5170,264.3293,95.7439,0,U,56497,999,16935,.36367627E-4,.341E-5,0
STARLINK-5522,2023-064BC,2026-06-05T06:40:09.168096,14.98331062,.00030486,69.9993,243.5605,261.2992,98.7822,0,U,56498,999,16935,.11007303E-4,.38E-6,0
STARLINK-5775,2023-065A,2026-06-05T01:20:39.335712,15.27584923,.00016669,43.0044,78.8865,258.7103,101.3562,0,U,56503,999,16996,.609257E-4,.1415E-4,0
STARLINK-5716,2023-065B,2026-06-01T05:05:46.674528,15.27587799,.00011599,42.9987,100.7766,158.3140,201.7761,0,U,56504,999,16937,.24316564E-4,.407E-5,0
STARLINK-5763,2023-065C,2026-06-05T02:18:01.579104,15.27574787,.00008481,43.0053,79.1773,258.0789,101.9968,0,U,56505,999,16996,.5633244E-5,-.107E-5,0
STARLINK-5340,2023-065D,2026-06-01T22:32:37.989312,15.27569736,.00016346,43.0060,85.4619,274.5742,85.4923,0,U,56506,999,16961,-.9751628E-5,-.531E-5,0
STARLINK-5333,2023-065E,2026-06-01T04:08:52.759104,15.27575907,.0001727,43.0051,68.2560,258.2967,101.7691,0,U,56507,999,16974,.45520872E-4,.99E-5,0
STARLINK-5335,2023-065F,2026-06-01T04:25:04.215648,15.27575596,.00016732,43.0054,100.5641,270.1679,89.8981,0,U,56508,999,16937,.28060446E-4,.51E-5,0
STARLINK-5334,2023-065G,2026-06-05T01:16:57.076896,15.27579403,.00020892,43.0067,78.8603,265.0801,94.9812,0,U,56509,999,16996,.29366191E-4,.546E-5,0
STARLINK-5339,2023-065H,2026-06-01T06:04:46.772832,15.27574590,.00018486,43.0058,100.2264,264.4529,95.6112,0,U,56510,999,16938,.41726249E-4,.886E-5,0
STARLINK-5351,2023-065J,2026-06-05T01:26:12.346368,15.27579947,.00013716,43.0035,78.9036,266.4592,93.6103,0,U,56511,999,16996,.28532109E-4,.523E-5,0
STARLINK-5349,2023-065K,2026-06-05T01:11:25.555776,15.27572752,.00014086,43.0062,78.8269,272.5432,87.5258,0,U,56512,999,16996,.12826263E-4,.91E-6,0
STARLINK-5329,2023-065L,2026-06-05T01:31:45.744960,15.27589996,.00017794,43.0053,78.9370,264.9571,95.1078,0,U,56513,999,16996,.93135198E-4,.2302E-4,0
STARLINK-5348,2023-065N,2026-06-05T01:37:18.575904,15.27579416,.0001245,43.0024,78.9651,260.5876,99.4835,0,U,56515,999,16996,.27904552E-4,.506E-5,0
STARLINK-5342,2023-065P,2026-06-05T01:22:30.459072,15.27578552,.00021852,43.0062,78.8926,282.3501,77.7106,0,U,56516,999,16996,.33283982E-4,.653E-5,0
STARLINK-5345,2023-065Q,2026-06-05T01:53:57.685632,15.27577276,.00004937,43.0029,79.0394,223.2822,136.7991,0,U,56517,999,16996,.8801358E-5,-.2E-6,0
STARLINK-5346,2023-065R,2026-06-05T01:42:51.812064,15.27579152,.00009027,43.0023,78.9932,263.0545,97.0204,0,U,56518,999,16996,.26490154E-4,.467E-5,0
STARLINK-6313,2023-065S,2026-06-05T02:03:13.027680,15.27577880,.00007133,43.0038,79.0879,230.9233,129.1555,0,U,56519,999,16996,.27438887E-4,.493E-5,0
STARLINK-6344,2023-065T,2026-06-05T01:48:24.934176,15.27577542,.00010815,43.0061,79.0183,258.2136,101.8594,0,U,56520,999,16996,.11282683E-4,.48E-6,0
